CORVUS BC4              
1 43767U 18099K   26068.65923737  .00005714  00000+0  33980-3 0  9990
2 43767  97.4206 114.5457 0008046 356.5821   3.5354 15.11615710397368
STARLINK-3399           
1 51121U 22005T   26068.86928639 -.00000227  00000+0  38397-5 0  9998
2 51121  53.2172 288.3271 0001438  86.3831 273.7326 15.08839443228904
